      2.10          N: GNSS NAV DATA                        RINEX VERSION / TYPE
fic2rin                                 06/19/2024 00:59:02 PGM / RUN BY / DATE
                                                            END OF HEADER
6  24  6 18  1 59 44.0  .212496612221D-03 -.213731254917D-10  .000000000000D+00
     .800000000000D+01 -.760000000000D+02  .371372612017D-08  .125012030092D+01
    -.388547778130D-05  .294110563118D-02  .501237809658D-05  .515364188385D+04
     .179984000000D+06  .670552253723D-07  .166080314428D+01 -.186264514923D-08
     .989487446432D+00  .297718750000D+03 -.692552382215D+00 -.782532595624D-08
    -.689314426998D-10  .100000000000D+01  .231900000000D+04  .000000000000D+00
     .240000000000D+01  .000000000000D+00  .372529029846D-08  .800000000000D+01
     .172800000000D+06  .400000000000D+01
2  24  6 18  2  0  0.0 -.415710266680D-03  .704858393874D-11  .000000000000D+00
     .900000000000D+02 -.819687500000D+02  .425839166482D-08 -.283945836243D+01
    -.415556132793D-05  .159756465582D-01  .337138772011D-05  .515370021629D+04
     .180000000000D+06  .149011611938D-06  .156197483422D+01  .149011611938D-06
     .967087164342D+00  .311406250000D+03 -.117392173604D+01 -.789782897628D-08
    -.703600736366D-10  .100000000000D+01  .231900000000D+04  .000000000000D+00
     .240000000000D+01  .000000000000D+00 -.176951289177D-07  .900000000000D+02
     .172800000000D+06  .400000000000D+01
1  24  6 18  2  0  0.0  .257863197476D-03 -.613908923697D-11  .000000000000D+00
     .103000000000D+03  .985625000000D+02  .558416117416D-08 -.161999392240D+01
     .505149364471D-05  .133767199004D-01  .993534922600D-05  .515377541351D+04
     .180000000000D+06  .352039933205D-06 -.432095708418D+00  .745058059692D-08
     .954567316852D+00  .184906250000D+03  .103061596335D+01 -.777853829306D-08
    -.189293599124D-09  .100000000000D+01  .231900000000D+04  .000000000000D+00
     .340000000000D+01  .630000000000D+02 -.195577740669D-07  .103000000000D+03
     .172800000000D+06  .400000000000D+01
3  24  6 18  2  0  0.0  .418517272919D-03  .178488335223D-10  .000000000000D+00
     .670000000000D+02 -.535937500000D+02  .391409160905D-08 -.979893879828D-01
    -.286288559437D-05  .559464842081D-02  .100638717413D-04  .515371006584D+04
     .180000000000D+06 -.335276126862D-07  .269721855377D+01  .540167093277D-07
     .985027162815D+00  .204500000000D+03  .110212178108D+01 -.766996234186D-08
     .333228166005D-09  .100000000000D+01  .231900000000D+04  .000000000000D+00
     .340000000000D+01  .000000000000D+00  .139698386192D-08  .670000000000D+02
     .172800000000D+06  .400000000000D+01
19 24  6 18 16  0  0.0  .498225446790D-03  .534328137292D-11  .000000000000D+00
     .930000000000D+02  .638437500000D+02  .468983820773D-08 -.194872918154D-01
     .329501926899D-05  .992504437454D-02  .272318720818D-05  .515371149254D+04
     .230400000000D+06  .428408384323D-07  .703014098536D+00 -.800937414169D-07
     .967942554487D+00  .331312500000D+03  .256549720950D+01 -.841927926820D-08
     .212151694112D-09  .100000000000D+01  .231900000000D+04  .000000000000D+00
     .240000000000D+01  .000000000000D+00 -.153668224812D-07  .930000000000D+02
     .223200000000D+06  .400000000000D+01
11 24  6 18 16  0  0.0 -.688095111400D-03 -.795807864051D-11  .000000000000D+00
     .260000000000D+02 -.851562500000D+02  .451661670664D-08 -.267380796290D+01
    -.434182584286D-05  .135910511017D-02  .392086803913D-05  .515372698593D+04
     .230400000000D+06 -.931322574615D-08  .169299199118D+01 -.109896063805D-06
     .966028188666D+00  .304406250000D+03 -.260351246704D+01 -.820284168128D-08
    -.255367779950D-09  .100000000000D+01  .231900000000D+04  .000000000000D+00
     .240000000000D+01  .000000000000D+00 -.884756445885D-08  .538000000000D+03
     .223200000000D+06  .400000000000D+01
23 24  6 18 16  0  0.0  .253363978118D-03  .909494701773D-11  .000000000000D+00
     .700000000000D+01 -.679062500000D+02  .388873340993D-08  .112453438971D+01
    -.340119004250D-05  .425317313056D-02  .102389603853D-04  .515372484207D+04
     .230400000000D+06 -.186264514923D-08  .266519669605D+01  .726431608200D-07
     .979823064352D+00  .191031250000D+03 -.296822548847D+01 -.767424823467D-08
     .610739725475D-10  .100000000000D+01  .231900000000D+04  .000000000000D+00
     .240000000000D+01  .000000000000D+00 -.838190317154D-08  .263000000000D+03
     .223200000000D+06  .400000000000D+01
31 24  6 18 16  0  0.0 -.227322336286D-03  .227373675443D-12  .000000000000D+00
     .141000000000D+03 -.840625000000D+01  .469055252320D-08  .545049696513D+00
    -.288709998131D-06  .104796219384D-01  .755675137043D-05  .515373416328D+04
     .230400000000D+06 -.968575477600D-07 -.147394371540D+01  .199303030968D-06
     .953804848338D+00  .231156250000D+03  .683609155842D+00 -.809962309610D-08
    -.417874549009D-09  .100000000000D+01  .231900000000D+04  .000000000000D+00
     .240000000000D+01  .000000000000D+00 -.135041773319D-07  .141000000000D+03
     .223200000000D+06  .400000000000D+01
18 24  6 18 16  0  0.0 -.626518391073D-03 -.477484718431D-11  .000000000000D+00
     .222000000000D+03 -.845000000000D+02  .442268422255D-08  .234248378789D+01
    -.431947410107D-05  .422561541200D-02  .406615436077D-05  .515360906410D+04
     .230400000000D+06 -.135973095894D-06  .166416424831D+01  .121071934700D-06
     .974313884564D+00  .310875000000D+03 -.305503029720D+01 -.814141055100D-08
    -.206080012631D-09  .100000000000D+01  .231900000000D+04  .000000000000D+00
     .240000000000D+01  .000000000000D+00 -.838190317154D-08  .990000000000D+03
     .223200000000D+06  .400000000000D+01
14 24  6 18 16  0  0.0  .428454019129D-03  .909494701773D-11  .000000000000D+00
     .164000000000D+03  .744375000000D+02  .463733602080D-08  .670051334328D+00
     .391155481339D-05  .459889404010D-02  .987388193607D-05  .515370429420D+04
     .230400000000D+06  .242143869400D-07 -.424577491528D+00  .113621354103D-06
     .945852765056D+00  .182250000000D+03 -.288956923585D+01 -.799604735318D-08
    -.735744932444D-10  .100000000000D+01  .231900000000D+04  .000000000000D+00
     .240000000000D+01  .000000000000D+00 -.791624188423D-08  .676000000000D+03
     .223200000000D+06  .400000000000D+01
2  24  6 18 15 59 44.0 -.415354035795D-03  .704858393874D-11  .000000000000D+00
     .620000000000D+02 -.790937500000D+02  .460947771753D-08 -.177403283831D+01
    -.373274087906D-05  .159769654274D-01  .316463410854D-05  .515369799614D+04
     .230384000000D+06 -.188127160072D-06  .156156359625D+01  .396743416786D-06
     .967073540186D+00  .323250000000D+03 -.117371524808D+01 -.824391482071D-08
    -.235724104569D-09  .100000000000D+01  .231900000000D+04  .000000000000D+00
     .240000000000D+01  .000000000000D+00 -.176951289177D-07  .620000000000D+02
     .224430000000D+06  .400000000000D+01
20 24  6 18 15 59 44.0  .373705290258D-03 -.454747350886D-12  .000000000000D+00
     .200000000000D+01 -.835312500000D+02  .436268172321D-08  .270955435593D+01
    -.450387597084D-05  .358357990626D-02  .909343361855D-05  .515381599808D+04
     .230384000000D+06 -.335276126862D-07  .251604892532D+01 -.540167093277D-07
     .954324718221D+00  .199718750000D+03 -.259023896512D+01 -.786389899153D-08
    -.400016662300D-10  .100000000000D+01  .231900000000D+04  .000000000000D+00
     .240000000000D+01  .630000000000D+02 -.838190317154D-08  .200000000000D+01
     .226200000000D+06  .400000000000D+01
29 24  6 18 15 59 44.0 -.593647360802D-03  .170530256582D-11  .000000000000D+00
     .900000000000D+01  .655625000000D+02  .456911889357D-08 -.199034024491D+01
     .346638262272D-05  .297270924784D-02  .298395752907D-05  .515357906342D+04
     .230384000000D+06 -.316649675369D-07  .673765283954D+00 -.298023223877D-07
     .971201706289D+00  .333281250000D+03  .257344742609D+01 -.821998525252D-08
     .202151277555D-09  .100000000000D+01  .231900000000D+04  .000000000000D+00
     .240000000000D+01  .000000000000D+00 -.977888703346D-08  .900000000000D+01
     .227700000000D+06  .400000000000D+01
2  24  6 18 17 59 44.0 -.415302813053D-03  .704858393874D-11  .000000000000D+00
     .640000000000D+02 -.802500000000D+02  .468805241906D-08 -.723891923244D+00
    -.430271029472D-05  .159772165352D-01  .357069075108D-05  .515369736290D+04
     .237584000000D+06 -.186264514923D-06  .156150130812D+01 -.447034835815D-07
     .967071246331D+00  .317375000000D+03 -.117368757113D+01 -.859428655796D-08
    -.560737642688D-10  .100000000000D+01  .231900000000D+04  .000000000000D+00
     .240000000000D+01  .000000000000D+00 -.176951289177D-07  .640000000000D+02
     .230400000000D+06  .400000000000D+01
29 24  6 18 17 59 44.0 -.593635253608D-03  .170530256582D-11  .000000000000D+00
     .100000000000D+02  .690312500000D+02  .445089968355D-08 -.939842146689D+00
     .329501926899D-05  .297291669995D-02  .292249023914D-05  .515358054733D+04
     .237584000000D+06  .502914190292D-07  .673705598360D+00 -.745058059692D-08
     .971203270149D+00  .328375000000D+03  .257318797611D+01 -.825641534141D-08
     .266082511976D-09  .100000000000D+01  .231900000000D+04  .000000000000D+00
     .240000000000D+01  .000000000000D+00 -.977888703346D-08  .100000000000D+02
     .230400000000D+06  .400000000000D+01
